start=new Date('2022-01-18T00:00:00.000Z').valueOf();
sats=[{"ECCENTRICITY":"0.00010490","CENTER_NAME":"EARTH","ARG_OF_PERICENTER":"82.4786","RA_OF_ASC_NODE":"215.2035","TIME_SYSTEM":"UTC","FILE":"3276075","MEAN_MOTION":"15.73142196","NORAD_CAT_ID":"50166","EPOCH":"2022-01-17T22:00:00.999936","DECAY_DATE":null,"PERIAPSIS":"349.219","BSTAR":"0.00039246000000","OBJECT_TYPE":"PAYLOAD","SEMIMAJOR_AXIS":"6728.060","REV_AT_EPOCH":"370","TLE_LINE1":"1 50166U 21125L   22017.91667824  .00054681  00000-0  39246-3 0  9995","OBJECT_ID":"2021-125L","LAUNCH_DATE":"2021-12-18","EPHEMERIS_TYPE":"0","MEAN_ELEMENT_THEORY":"SGP4","MEAN_MOTION_DOT":"0.00054681","MEAN_MOTION_DDOT":"0.0000000000000","SITE":"AFWTR","INCLINATION":"53.2165","PERIOD":"91.537","ELEMENT_SET_NO":"999","GP_ID":"194090312","TLE_LINE2":"2 50166  53.2165 215.2035 0001049  82.4786 225.6221 15.73142196  3708","APOAPSIS":"350.631","CLASSIFICATION_TYPE":"U","MEAN_ANOMALY":"225.6221","RCS_SIZE":"LARGE","REF_FRAME":"TEME","OBJECT_NAME":"STARLINK-3305","COUNTRY_CODE":"US"},{"BSTAR":"-0.00570250000000","OBJECT_TYPE":"PAYLOAD","SEMIMAJOR_AXIS":"6735.367","PERIAPSIS":"356.433","DECAY_DATE":null,"EPOCH":"2022-01-17T22:00:00.999936","NORAD_CAT_ID":"50167","FILE":"3276075","MEAN_MOTION":"15.70582927","TIME_SYSTEM":"UTC","ECCENTRICITY":"0.00011860","CENTER_NAME":"EARTH","ARG_OF_PERICENTER":"70.5428","RA_OF_ASC_NODE":"215.2183","COUNTRY_CODE":"US","OBJECT_NAME":"STARLINK-3271","CLASSIFICATION_TYPE":"U","RCS_SIZE":"LARGE","MEAN_ANOMALY":"226.6903","REF_FRAME":"TEME","APOAPSIS":"358.031","GP_ID":"194091062","TLE_LINE2":"2 50167  53.2177 215.2183 0001186  70.5428 226.6903 15.70582927  3704","SITE":"AFWTR","PERIOD":"91.686","INCLINATION":"53.2177","ELEMENT_SET_NO":"999","OBJECT_ID":"2021-125M","EPHEMERIS_TYPE":"0","LAUNCH_DATE":"2021-12-18","MEAN_ELEMENT_THEORY":"SGP4","MEAN_MOTION_DOT":"-0.00662684","MEAN_MOTION_DDOT":"0.0000000000000","REV_AT_EPOCH":"370","TLE_LINE1":"1 50167U 21125M   22017.91667824 -.00662684  00000-0 -57025-2 0  9990"},{"DECAY_DATE":null,"NORAD_CAT_ID":"50168","EPOCH":"2022-01-17T22:00:00.999936","BSTAR":"0.00082178000000","SEMIMAJOR_AXIS":"6728.209","OBJECT_TYPE":"PAYLOAD","PERIAPSIS":"349.362","ECCENTRICITY":"0.00010590","RA_OF_ASC_NODE":"215.2037","ARG_OF_PERICENTER":"77.7184","CENTER_NAME":"EARTH","FILE":"3276075","MEAN_MOTION":"15.73089884","TIME_SYSTEM":"UTC","MEAN_ANOMALY":"231.3214","RCS_SIZE":"LARGE","CLASSIFICATION_TYPE":"U","REF_FRAME":"TEME","APOAPSIS":"350.787","COUNTRY_CODE":"US","OBJECT_NAME":"STARLINK-3296","LAUNCH_DATE":"2021-12-18","EPHEMERIS_TYPE":"0","MEAN_ELEMENT_THEORY":"SGP4","OBJECT_ID":"2021-125N","MEAN_MOTION_DDOT":"0.0000000000000","MEAN_MOTION_DOT":"0.00115764","REV_AT_EPOCH":"370","TLE_LINE1":"1 50168U 21125N   22017.91667824  .00115764  00000-0  82178-3 0  9999","TLE_LINE2":"2 50168  53.2172 215.2037 0001059  77.7184 231.3214 15.73089884  3700","GP_ID":"194089311","SITE":"AFWTR","PERIOD":"91.540","ELEMENT_SET_NO":"999","INCLINATION":"53.2172"},{"MEAN_MOTION":"15.73110221","FILE":"3276075","TIME_SYSTEM":"UTC","ARG_OF_PERICENTER":"68.8499","RA_OF_ASC_NODE":"215.1875","CENTER_NAME":"EARTH","ECCENTRICITY":"0.00013320","SEMIMAJOR_AXIS":"6728.151","OBJECT_TYPE":"PAYLOAD","BSTAR":"0.00041135000000","PERIAPSIS":"349.120","DECAY_DATE":null,"NORAD_CAT_ID":"50169","EPOCH":"2022-01-17T22:00:00.999936","TLE_LINE2":"2 50169  53.2166 215.1875 0001332  68.8499 247.6621 15.73110221  3709","GP_ID":"194089561","PERIOD":"91.538","INCLINATION":"53.2166","ELEMENT_SET_NO":"999","SITE":"AFWTR","MEAN_MOTION_DDOT":"0.0000000000000","MEAN_MOTION_DOT":"0.00057283","LAUNCH_DATE":"2021-12-18","EPHEMERIS_TYPE":"0","MEAN_ELEMENT_THEORY":"SGP4","OBJECT_ID":"2021-125P","REV_AT_EPOCH":"370","TLE_LINE1":"1 50169U 21125P   22017.91667824  .00057283  00000-0  41135-3 0  9999","COUNTRY_CODE":"US","OBJECT_NAME":"STARLINK-3301","REF_FRAME":"TEME","RCS_SIZE":"LARGE","MEAN_ANOMALY":"247.6621","CLASSIFICATION_TYPE":"U","APOAPSIS":"350.912"},{"SITE":"AFWTR","PERIOD":"91.538","ELEMENT_SET_NO":"999","INCLINATION":"53.2162","GP_ID":"194090813","TLE_LINE2":"2 50170  53.2162 215.1973 0001113  73.2879 237.6058 15.73125032  3704","TLE_LINE1":"1 50170U 21125Q   22017.91667824  .00053928  00000-0  38743-3 0  9994","REV_AT_EPOCH":"370","OBJECT_ID":"2021-125Q","LAUNCH_DATE":"2021-12-18","EPHEMERIS_TYPE":"0","MEAN_ELEMENT_THEORY":"SGP4","MEAN_MOTION_DOT":"0.00053928","MEAN_MOTION_DDOT":"0.0000000000000","OBJECT_NAME":"STARLINK-3245","COUNTRY_CODE":"US","APOAPSIS":"350.723","CLASSIFICATION_TYPE":"U","RCS_SIZE":"LARGE","MEAN_ANOMALY":"237.6058","REF_FRAME":"TEME","TIME_SYSTEM":"UTC","FILE":"3276075","MEAN_MOTION":"15.73125032","ECCENTRICITY":"0.00011130","CENTER_NAME":"EARTH","RA_OF_ASC_NODE":"215.1973","ARG_OF_PERICENTER":"73.2879","PERIAPSIS":"349.225","BSTAR":"0.00038743000000","OBJECT_TYPE":"PAYLOAD","SEMIMAJOR_AXIS":"6728.109","NORAD_CAT_ID":"50170","EPOCH":"2022-01-17T22:00:00.999936","DECAY_DATE":null},{"PERIAPSIS":"348.790","BSTAR":"0.00041181000000","SEMIMAJOR_AXIS":"6727.997","OBJECT_TYPE":"PAYLOAD","NORAD_CAT_ID":"50171","EPOCH":"2022-01-17T22:00:00.999936","DECAY_DATE":null,"TIME_SYSTEM":"UTC","FILE":"3276075","MEAN_MOTION":"15.73164267","ECCENTRICITY":"0.00015930","ARG_OF_PERICENTER":"75.0742","RA_OF_ASC_NODE":"215.2057","CENTER_NAME":"EARTH","OBJECT_NAME":"STARLINK-3286","COUNTRY_CODE":"US","APOAPSIS":"350.934","RCS_SIZE":"LARGE","MEAN_ANOMALY":"232.0820","CLASSIFICATION_TYPE":"U","REF_FRAME":"TEME","SITE":"AFWTR","PERIOD":"91.535","INCLINATION":"53.2165","ELEMENT_SET_NO":"999","TLE_LINE2":"2 50171  53.2165 215.2057 0001593  75.0742 232.0820 15.73164267  3702","GP_ID":"194090562","REV_AT_EPOCH":"370","TLE_LINE1":"1 50171U 21125R   22017.91667824  .00057483  00000-0  41181-3 0  9995","LAUNCH_DATE":"2021-12-18","EPHEMERIS_TYPE":"0","MEAN_ELEMENT_THEORY":"SGP4","OBJECT_ID":"2021-125R","MEAN_MOTION_DDOT":"0.0000000000000","MEAN_MOTION_DOT":"0.00057483"},{"COUNTRY_CODE":"US","OBJECT_NAME":"STARLINK-3287","REF_FRAME":"TEME","CLASSIFICATION_TYPE":"U","RCS_SIZE":"LARGE","MEAN_ANOMALY":"242.2388","APOAPSIS":"350.608","GP_ID":"194089812","TLE_LINE2":"2 50172  53.2158 215.1925 0000961  70.5288 242.2388 15.73129578  3709","INCLINATION":"53.2158","PERIOD":"91.537","ELEMENT_SET_NO":"999","SITE":"AFWTR","MEAN_MOTION_DOT":"0.00054561","MEAN_MOTION_DDOT":"0.0000000000000","OBJECT_ID":"2021-125S","LAUNCH_DATE":"2021-12-18","EPHEMERIS_TYPE":"0","MEAN_ELEMENT_THEORY":"SGP4","TLE_LINE1":"1 50172U 21125S   22017.91667824  .00054561  00000-0  39182-3 0  9998","REV_AT_EPOCH":"370","OBJECT_TYPE":"PAYLOAD","SEMIMAJOR_AXIS":"6728.096","BSTAR":"0.00039182000000","PERIAPSIS":"349.314","DECAY_DATE":null,"EPOCH":"2022-01-17T22:00:00.999936","NORAD_CAT_ID":"50172","MEAN_MOTION":"15.73129578","FILE":"3276075","TIME_SYSTEM":"UTC","CENTER_NAME":"EARTH","ARG_OF_PERICENTER":"70.5288","RA_OF_ASC_NODE":"215.1925","ECCENTRICITY":"0.00009610"},{"DECAY_DATE":null,"NORAD_CAT_ID":"50173","EPOCH":"2022-01-17T22:00:00.999936","BSTAR":"0.00051847000000","SEMIMAJOR_AXIS":"6728.067","OBJECT_TYPE":"PAYLOAD","PERIAPSIS":"349.180","ECCENTRICITY":"0.00011180","ARG_OF_PERICENTER":"74.4355","RA_OF_ASC_NODE":"215.1273","CENTER_NAME":"EARTH","FILE":"3276075","MEAN_MOTION":"15.73139690","TIME_SYSTEM":"UTC","RCS_SIZE":"LARGE","MEAN_ANOMALY":"270.1407","CLASSIFICATION_TYPE":"U","REF_FRAME":"TEME","APOAPSIS":"350.684","COUNTRY_CODE":"US","OBJECT_NAME":"STARLINK-3289","LAUNCH_DATE":"2021-12-18","MEAN_ELEMENT_THEORY":"SGP4","EPHEMERIS_TYPE":"0","OBJECT_ID":"2021-125T","MEAN_MOTION_DDOT":"0.0000000000000","MEAN_MOTION_DOT":"0.00072586","REV_AT_EPOCH":"370","TLE_LINE1":"1 50173U 21125T   22017.91667824  .00072586  00000-0  51847-3 0  9998","TLE_LINE2":"2 50173  53.2153 215.1273 0001118  74.4355 270.1407 15.73139690  3702","GP_ID":"194090062","SITE":"AFWTR","INCLINATION":"53.2153","PERIOD":"91.537","ELEMENT_SET_NO":"999"},{"SEMIMAJOR_AXIS":"6728.012","OBJECT_TYPE":"PAYLOAD","BSTAR":"0.00039148000000","PERIAPSIS":"349.141","DECAY_DATE":null,"EPOCH":"2022-01-17T22:00:00.999936","NORAD_CAT_ID":"50174","MEAN_MOTION":"15.73158904","FILE":"3276075","TIME_SYSTEM":"UTC","RA_OF_ASC_NODE":"215.1870","ARG_OF_PERICENTER":"69.1102","CENTER_NAME":"EARTH","ECCENTRICITY":"0.00010950","COUNTRY_CODE":"US","OBJECT_NAME":"STARLINK-3292","REF_FRAME":"TEME","MEAN_ANOMALY":"246.4857","RCS_SIZE":"LARGE","CLASSIFICATION_TYPE":"U","APOAPSIS":"350.614","TLE_LINE2":"2 50174  53.2160 215.1870 0001095  69.1102 246.4857 15.73158904  3703","GP_ID":"194090313","PERIOD":"91.536","ELEMENT_SET_NO":"999","INCLINATION":"53.2160","SITE":"AFWTR","MEAN_MOTION_DDOT":"0.0000000000000","MEAN_MOTION_DOT":"0.00054582","EPHEMERIS_TYPE":"0","LAUNCH_DATE":"2021-12-18","MEAN_ELEMENT_THEORY":"SGP4","OBJECT_ID":"2021-125U","TLE_LINE1":"1 50174U 21125U   22017.91667824  .00054582  00000-0  39148-3 0  9995","REV_AT_EPOCH":"370"},{"CLASSIFICATION_TYPE":"U","RCS_SIZE":"LARGE","MEAN_ANOMALY":"228.9135","REF_FRAME":"TEME","APOAPSIS":"350.647","COUNTRY_CODE":"US","OBJECT_NAME":"STARLINK-3291","OBJECT_ID":"2021-125V","MEAN_ELEMENT_THEORY":"SGP4","LAUNCH_DATE":"2021-12-18","EPHEMERIS_TYPE":"0","MEAN_MOTION_DOT":"0.00055413","MEAN_MOTION_DDOT":"0.0000000000000","REV_AT_EPOCH":"370","TLE_LINE1":"1 50175U 21125V   22017.91667824  .00055413  00000-0  39762-3 0  9992","GP_ID":"194091063","TLE_LINE2":"2 50175  53.2164 215.1996 0001073  81.0507 228.9135 15.73142112  3703","SITE":"AFWTR","PERIOD":"91.537","ELEMENT_SET_NO":"999","INCLINATION":"53.2164","DECAY_DATE":null,"EPOCH":"2022-01-17T22:00:00.999936","NORAD_CAT_ID":"50175","BSTAR":"0.00039762000000","OBJECT_TYPE":"PAYLOAD","SEMIMAJOR_AXIS":"6728.060","PERIAPSIS":"349.203","ECCENTRICITY":"0.00010730","CENTER_NAME":"EARTH","ARG_OF_PERICENTER":"81.0507","RA_OF_ASC_NODE":"215.1996","FILE":"3276075","MEAN_MOTION":"15.73142112","TIME_SYSTEM":"UTC"}];
